# Take the TLE for the spacecraft from http://www.celestrak.com/NORAD/elements/ 
# (see cubesat.txt for cubesats)
# this example takes ISS OBJECT A
tle.line.1="1 39412U 98067DA  13343.12890038  .00068429  00000-0  10624-2 0   630"
tle.line.2="2 39412  51.6509 321.3059 0005304  96.9471 359.5554 15.53317866  3035"

# seconds
duration=1200

# step in seconds
timestep=20

# output filename
output = geomagnetic_field_ardusat.dat
